[{"OBJECT_NAME":"SHIYAN-21 (SY-21)","OBJECT_ID":"2022-172A","EPOCH":"2026-03-09T23:40:42.191616","MEAN_MOTION":15.28197132,"ECCENTRICITY":0.00206059,"INCLINATION":35.9768,"RA_OF_ASC_NODE":332.6944,"ARG_OF_PERICENTER":79.3933,"MEAN_ANOMALY":280.9121,"EPHEMERIS_TYPE":0,"CLASSIFICATION_TYPE":"U","NORAD_CAT_ID":54752,"ELEMENT_SET_NO":999,"REV_AT_EPOCH":18050,"BSTAR":0.00041186164,"MEAN_MOTION_DOT":0.00011616,"MEAN_MOTION_DDOT":0},{"OBJECT_NAME":"STARLINK-34550","OBJECT_ID":"2025-139V","EPOCH":"2026-03-09T10:12:33.794496","MEAN_MOTION":15.30193759,"ECCENTRICITY":0.00012808,"INCLINATION":53.1594,"RA_OF_ASC_NODE":128.2629,"ARG_OF_PERICENTER":81.15,"MEAN_ANOMALY":278.9645,"EPHEMERIS_TYPE":0,"CLASSIFICATION_TYPE":"U","NORAD_CAT_ID":64683,"ELEMENT_SET_NO":999,"REV_AT_EPOCH":4024,"BSTAR":0.00049018187,"MEAN_MOTION_DOT":0.00014184,"MEAN_MOTION_DDOT":0}]
